{
  "type": "FeatureCollection",
  "features": [
    {
      "type": "Feature",
      "properties": {
        "norad_id": 32099,
        "name": "FENGYUN 1C DEB",
        "group": "fengyun-1c-debris",
        "lat": 45.1266486741696,
        "lon": 152.36645013978563,
        "alt_km": 1052.8116223017078,
        "timestamp": "2025-12-18T17:50:15.241976+00:00",
        "meta_object_name": "FENGYUN 1C DEB",
        "meta_object_id": "1999-025CQR",
        "meta_epoch": "2025-12-13T04:24:17.454240",
        "meta_mean_motion": 13.91775545,
        "meta_eccentricity": 0.03428827,
        "meta_inclination": 98.2819,
        "meta_ra_of_asc_node": 318.9761,
        "meta_arg_of_pericenter": 273.8166,
        "meta_mean_anomaly": 102.561,
        "meta_ephemeris_type": 0,
        "meta_classification_type": "U",
        "meta_norad_cat_id": 32099,
        "meta_element_set_no": 999,
        "meta_rev_at_epoch": 64694,
        "meta_bstar": 0.0015539286,
        "meta_mean_motion_dot": 3.154e-05,
        "meta_mean_motion_ddot": 0,
        "tle_line1": "1 32099U 99025CQR 25347.18353535  .00003154  00000+0  15539-2 0  9999",
        "tle_line2": "2 32099  98.2819 318.9761 0342882 273.8166 102.5610 13.91775545646948"
      },
      "geometry": {
        "type": "Point",
        "coordinates": [
          152.36645013978563,
          45.1266486741696
        ]
      }
    },
    {
      "type": "Feature",
      "properties": {
        "norad_id": 32101,
        "name": "FENGYUN 1C DEB",
        "group": "fengyun-1c-debris",
        "lat": 72.60453694259766,
        "lon": -138.77008262278332,
        "alt_km": 953.951810025078,
        "timestamp": "2025-12-18T17:50:15.241986+00:00",
        "meta_object_name": "FENGYUN 1C DEB",
        "meta_object_id": "1999-025CQT",
        "meta_epoch": "2025-12-17T10:38:07.315872",
        "meta_mean_motion": 14.01678164,
        "meta_eccentricity": 0.01203393,
        "meta_inclination": 99.033,
        "meta_ra_of_asc_node": 250.4566,
        "meta_arg_of_pericenter": 225.667,
        "meta_mean_anomaly": 133.4583,
        "meta_ephemeris_type": 0,
        "meta_classification_type": "U",
        "meta_norad_cat_id": 32101,
        "meta_element_set_no": 999,
        "meta_rev_at_epoch": 93248,
        "meta_bstar": 0.0016075124,
        "meta_mean_motion_dot": 2.552e-05,
        "meta_mean_motion_ddot": 0,
        "tle_line1": "1 32101U 99025CQT 25351.44314023  .00002552  00000+0  16075-2 0  9993",
        "tle_line2": "2 32101  99.0330 250.4566 0120339 225.6670 133.4583 14.01678164932488"
      },
      "geometry": {
        "type": "Point",
        "coordinates": [
          -138.77008262278332,
          72.60453694259766
        ]
      }
    },
    {
      "type": "Feature",
      "properties": {
        "norad_id": 32105,
        "name": "FENGYUN 1C DEB",
        "group": "fengyun-1c-debris",
        "lat": 33.15254370849712,
        "lon": 175.19149286411724,
        "alt_km": 1058.7761137978969,
        "timestamp": "2025-12-18T17:50:15.241996+00:00",
        "meta_object_name": "FENGYUN 1C DEB",
        "meta_object_id": "1999-025CQX",
        "meta_epoch": "2025-12-17T05:19:37.418304",
        "meta_mean_motion": 13.40288111,
        "meta_eccentricity": 0.03945751,
        "meta_inclination": 103.4645,
        "meta_ra_of_asc_node": 344.1703,
        "meta_arg_of_pericenter": 65.7841,
        "meta_mean_anomaly": 298.3981,
        "meta_ephemeris_type": 0,
        "meta_classification_type": "U",
        "meta_norad_cat_id": 32105,
        "meta_element_set_no": 999,
        "meta_rev_at_epoch": 59771,
        "meta_bstar": 0.0022256108,
        "meta_mean_motion_dot": 1.853e-05,
        "meta_mean_motion_ddot": 0,
        "tle_line1": "1 32105U 99025CQX 25351.22196086  .00001853  00000+0  22256-2 0  9991",
        "tle_line2": "2 32105 103.4645 344.1703 0394575  65.7841 298.3981 13.40288111597710"
      },
      "geometry": {
        "type": "Point",
        "coordinates": [
          175.19149286411724,
          33.15254370849712
        ]
      }
    },
    {
      "type": "Feature",
      "properties": {
        "norad_id": 32106,
        "name": "FENGYUN 1C DEB",
        "group": "fengyun-1c-debris",
        "lat": 31.684540875031985,
        "lon": 153.16932684824621,
        "alt_km": 839.6204597792857,
        "timestamp": "2025-12-18T17:50:15.242006+00:00",
        "meta_object_name": "FENGYUN 1C DEB",
        "meta_object_id": "1999-025CQY",
        "meta_epoch": "2025-12-14T15:33:56.008224",
        "meta_mean_motion": 14.27045005,
        "meta_eccentricity": 0.01101626,
        "meta_inclination": 101.4619,
        "meta_ra_of_asc_node": 320.6242,
        "meta_arg_of_pericenter": 37.2039,
        "meta_mean_anomaly": 323.67,
        "meta_ephemeris_type": 0,
        "meta_classification_type": "U",
        "meta_norad_cat_id": 32106,
        "meta_element_set_no": 999,
        "meta_rev_at_epoch": 69419,
        "meta_bstar": 0.003667977,
        "meta_mean_motion_dot": 9.474e-05,
        "meta_mean_motion_ddot": 0,
        "tle_line1": "1 32106U 99025CQY 25348.64856491  .00009474  00000+0  36680-2 0  9990",
        "tle_line2": "2 32106 101.4619 320.6242 0110162  37.2039 323.6700 14.27045005694198"
      },
      "geometry": {
        "type": "Point",
        "coordinates": [
          153.16932684824621,
          31.684540875031985
        ]
      }
    },
    {
      "type": "Feature",
      "properties": {
        "norad_id": 32109,
        "name": "FENGYUN 1C DEB",
        "group": "fengyun-1c-debris",
        "lat": 80.62497060528462,
        "lon": 169.1404017376567,
        "alt_km": 899.4379919615403,
        "timestamp": "2025-12-18T17:50:15.242016+00:00",
        "meta_object_name": "FENGYUN 1C DEB",
        "meta_object_id": "1999-025CRB",
        "meta_epoch": "2025-12-15T22:26:56.704992",
        "meta_mean_motion": 14.3395276,
        "meta_eccentricity": 0.02055059,
        "meta_inclination": 98.3614,
        "meta_ra_of_asc_node": 229.3988,
        "meta_arg_of_pericenter": 302.7937,
        "meta_mean_anomaly": 55.3599,
        "meta_ephemeris_type": 0,
        "meta_classification_type": "U",
        "meta_norad_cat_id": 32109,
        "meta_element_set_no": 999,
        "meta_rev_at_epoch": 64934,
        "meta_bstar": 0.00043905437,
        "meta_mean_motion_dot": 1.501e-05,
        "meta_mean_motion_ddot": 0,
        "tle_line1": "1 32109U 99025CRB 25349.93537853  .00001501  00000+0  43905-3 0  9996",
        "tle_line2": "2 32109  98.3614 229.3988 0205505 302.7937  55.3599 14.33952760649349"
      },
      "geometry": {
        "type": "Point",
        "coordinates": [
          169.1404017376567,
          80.62497060528462
        ]
      }
    },
    {
      "type": "Feature",
      "properties": {
        "norad_id": 32110,
        "name": "FENGYUN 1C DEB",
        "group": "fengyun-1c-debris",
        "lat": -0.6667215560498428,
        "lon": 162.61308603317175,
        "alt_km": 774.6648210006333,
        "timestamp": "2025-12-18T17:50:15.242026+00:00",
        "meta_object_name": "FENGYUN 1C DEB",
        "meta_object_id": "1999-025CRC",
        "meta_epoch": "2025-12-15T23:19:37.733664",
        "meta_mean_motion": 14.28919204,
        "meta_eccentricity": 0.0033408,
        "meta_inclination": 99.5428,
        "meta_ra_of_asc_node": 159.4713,
        "meta_arg_of_pericenter": 357.4893,
        "meta_mean_anomaly": 154.0044,
        "meta_ephemeris_type": 0,
        "meta_classification_type": "U",
        "meta_norad_cat_id": 32110,
        "meta_element_set_no": 999,
        "meta_rev_at_epoch": 64434,
        "meta_bstar": 0.0010448124,
        "meta_mean_motion_dot": 2.604e-05,
        "meta_mean_motion_ddot": 0,
        "tle_line1": "1 32110U 99025CRC 25349.97196451  .00002604  00000+0  10448-2 0  9997",
        "tle_line2": "2 32110  99.5428 159.4713 0033408 357.4893 154.0044 14.28919204644342"
      },
      "geometry": {
        "type": "Point",
        "coordinates": [
          162.61308603317175,
          -0.6667215560498428
        ]
      }
    },
    {
      "type": "Feature",
      "properties": {
        "norad_id": 32111,
        "name": "FENGYUN 1C DEB",
        "group": "fengyun-1c-debris",
        "lat": 53.985203703331955,
        "lon": -19.480224720202138,
        "alt_km": 838.5267361675587,
        "timestamp": "2025-12-18T17:50:15.242036+00:00",
        "meta_object_name": "FENGYUN 1C DEB",
        "meta_object_id": "1999-025CRD",
        "meta_epoch": "2025-12-17T23:15:28.889568",
        "meta_mean_motion": 14.31552028,
        "meta_eccentricity": 0.01199865,
        "meta_inclination": 98.4433,
        "meta_ra_of_asc_node": 351.5571,
        "meta_arg_of_pericenter": 189.336,
        "meta_mean_anomaly": 199.2635,
        "meta_ephemeris_type": 0,
        "meta_classification_type": "U",
        "meta_norad_cat_id": 32111,
        "meta_element_set_no": 999,
        "meta_rev_at_epoch": 96106,
        "meta_bstar": 0.00016396968,
        "meta_mean_motion_dot": 4.28e-06,
        "meta_mean_motion_ddot": 0,
        "tle_line1": "1 32111U 99025CRD 25351.96908437  .00000428  00000+0  16397-3 0  9997",
        "tle_line2": "2 32111  98.4433 351.5571 0119986 189.3360 199.2635 14.31552028961060"
      },
      "geometry": {
        "type": "Point",
        "coordinates": [
          -19.480224720202138,
          53.985203703331955
        ]
      }
    }
  ]
}